IRIDIUM 155             
1 43573U 18061E   22072.50566526  .00000142  00000+0  43510-4 0  9999
2 43573  86.4018 347.2537 0002462  79.0846 281.0627 14.34213246190231
IRIDIUM 154             
1 43574U 18061F   22072.27733988  .00000370  00000+0  12504-3 0  9993
2 43574  86.4022 347.4077 0002019  92.2895 267.8532 14.34216039190259
IRIDIUM 163             
1 43575U 18061G   22072.46760591  .00000224  00000+0  72779-4 0  9994
2 43575  86.4019 347.2916 0001698  80.5729 279.5658 14.34221632190258
IRIDIUM 156             
1 43576U 18061H   22072.30270809  .00000194  00000+0  62096-4 0  9993
2 43576  86.4020 347.3658 0002026  75.0142 285.1278 14.34221685190225
IRIDIUM 164             
1 43577U 18061J   22072.49298688  .00000224  00000+0  72928-4 0  9998
2 43577  86.4020 347.3029 0001910  89.9783 270.1631 14.34220459190296
IRIDIUM 159             
1 43578U 18061K   22072.46129018  .00000220  00000+0  71435-4 0  9994
2 43578  86.4020 347.2857 0001998  89.7433 270.3992 14.34217176190251
IRIDIUM 180             
1 43922U 19002A   22072.53054220  .00000083  00000+0  22627-4 0  9999
2 43922  86.3924 284.1087 0001662 109.2412 250.8964 14.34219148165876
IRIDIUM 176             
1 43923U 19002B   22072.56246972  .00000212  00000+0  29638-4 0  9993
2 43923  86.6059 284.1302 0002472  89.3184 270.8316 14.72255470170221
IRIDIUM 168             
1 43924U 19002C   22072.52418321  .00000039  00000+0  69318-5 0  9996
2 43924  86.3925 284.1447 0002008  96.3125 263.8299 14.34217437165853
IRIDIUM 173             
1 43925U 19002D   22072.58126595  .00000098  00000+0  27874-4 0  9997
2 43925  86.3922 284.0731 0001966  93.8224 266.3196 14.34217274165842
IRIDIUM 169             
1 43926U 19002E   22072.38533346  .00000223  00000+0  66432-4 0  9995
2 43926  86.4230 315.7758 0006714  73.8835 286.3102 14.38602312166406
IRIDIUM 172             
1 43927U 19002F   22072.57493165  .00000114  00000+0  33684-4 0  9993
2 43927  86.3915 284.0791 0002017  97.8191 262.3233 14.34217547165859
IRIDIUM 175             
1 43928U 19002G   22072.55626549  .00000214  00000+0  30085-4 0  9999
2 43928  86.6061 283.9602 0002015  95.2625 264.8822 14.72255205170218
IRIDIUM 171             
1 43929U 19002H   22072.55589835  .00000065  00000+0  16134-4 0  9999
2 43929  86.3932 284.2205 0002054  96.3203 263.8227 14.34218322165841
IRIDIUM 170             
1 43930U 19002J   22072.56867011  .00000228  00000+0  32312-4 0  9994
2 43930  86.6058 284.1332 0002398  92.4310 267.7181 14.72254788170231
IRIDIUM 167             
1 43931U 19002K   22072.54953437  .00000050  00000+0  10888-4 0  9998
2 43931  86.3923 284.0982 0001863 102.8361 257.3043 14.34216086165848
